{
  "links" : {
    "next" : "https://api.nasa.gov/neo/rest/v1/feed?start_date=2003-09-09&end_date=2003-09-09&detailed=true&api_key=t0TVs3DtDT2H8Oy2Zy8m2eVrNsAVKAexjcZXUckd",
    "prev" : "https://api.nasa.gov/neo/rest/v1/feed?start_date=2003-09-07&end_date=2003-09-07&detailed=true&api_key=t0TVs3DtDT2H8Oy2Zy8m2eVrNsAVKAexjcZXUckd",
    "self" : "https://api.nasa.gov/neo/rest/v1/feed?start_date=2003-09-08&end_date=2003-09-08&detailed=true&api_key=t0TVs3DtDT2H8Oy2Zy8m2eVrNsAVKAexjcZXUckd"
  },
  "element_count" : 3,
  "near_earth_objects" : {
    "2003-09-08" : [ {
      "links" : {
        "self" : "https://api.nasa.gov/neo/rest/v1/neo/3600242?api_key=t0TVs3DtDT2H8Oy2Zy8m2eVrNsAVKAexjcZXUckd"
      },
      "neo_reference_id" : "3600242",
      "name" : "(2012 DJ61)",
      "nasa_jpl_url" : "http://ssd.jpl.nasa.gov/sbdb.cgi?sstr=3600242",
      "absolute_magnitude_h" : 19.9,
      "estimated_diameter" : {
        "kilometers" : {
          "estimated_diameter_min" : 0.2783267681,
          "estimated_diameter_max" : 0.6223575734
        },
        "meters" : {
          "estimated_diameter_min" : 278.3267680719,
          "estimated_diameter_max" : 622.3575733667
        },
        "miles" : {
          "estimated_diameter_min" : 0.1729441822,
          "estimated_diameter_max" : 0.3867149477
        },
        "feet" : {
          "estimated_diameter_min" : 913.1455937611,
          "estimated_diameter_max" : 2041.8556210042
        }
      },
      "is_potentially_hazardous_asteroid" : true,
      "close_approach_data" : [ {
        "close_approach_date" : "2003-09-08",
        "epoch_date_close_approach" : 1063004400000,
        "relative_velocity" : {
          "kilometers_per_second" : "39.2975857415",
          "kilometers_per_hour" : "141471.3086694846",
          "miles_per_hour" : "87904.7695452139"
        },
        "miss_distance" : {
          "astronomical" : "0.4968048426",
          "lunar" : "193.2570800781",
          "kilometers" : "74320944",
          "miles" : "46180896"
        },
        "orbiting_body" : "Earth"
      } ],
      "orbital_data" : {
        "orbit_id" : "19",
        "orbit_determination_date" : "2017-04-06 08:50:42",
        "orbit_uncertainty" : "2",
        "minimum_orbit_intersection" : ".0298515",
        "jupiter_tisserand_invariant" : "6.097",
        "epoch_osculation" : "2458000.5",
        "eccentricity" : ".515313587190268",
        "semi_major_axis" : ".9176740341784246",
        "inclination" : "53.62974053734999",
        "ascending_node_longitude" : "346.2809941631512",
        "orbital_period" : "321.0931879120298",
        "perihelion_distance" : ".444784135754576",
        "perihelion_argument" : "311.9479463606393",
        "aphelion_distance" : "1.390563932602273",
        "perihelion_time" : "2458012.507316386742",
        "mean_anomaly" : "346.5377589374104",
        "mean_motion" : "1.121169845866146",
        "equinox" : "J2000"
      }
    }, {
      "links" : {
        "self" : "https://api.nasa.gov/neo/rest/v1/neo/3763547?api_key=t0TVs3DtDT2H8Oy2Zy8m2eVrNsAVKAexjcZXUckd"
      },
      "neo_reference_id" : "3763547",
      "name" : "(2016 VD4)",
      "nasa_jpl_url" : "http://ssd.jpl.nasa.gov/sbdb.cgi?sstr=3763547",
      "absolute_magnitude_h" : 27.6,
      "estimated_diameter" : {
        "kilometers" : {
          "estimated_diameter_min" : 0.0080270317,
          "estimated_diameter_max" : 0.0179489885
        },
        "meters" : {
          "estimated_diameter_min" : 8.0270316728,
          "estimated_diameter_max" : 17.948988478
        },
        "miles" : {
          "estimated_diameter_min" : 0.0049877647,
          "estimated_diameter_max" : 0.0111529809
        },
        "feet" : {
          "estimated_diameter_min" : 26.3354065935,
          "estimated_diameter_max" : 58.8877593581
        }
      },
      "is_potentially_hazardous_asteroid" : false,
      "close_approach_data" : [ {
        "close_approach_date" : "2003-09-08",
        "epoch_date_close_approach" : 1063004400000,
        "relative_velocity" : {
          "kilometers_per_second" : "12.8924091374",
          "kilometers_per_hour" : "46412.6728947743",
          "miles_per_hour" : "28839.0299995335"
        },
        "miss_distance" : {
          "astronomical" : "0.4028536784",
          "lunar" : "156.7100830078",
          "kilometers" : "60266052",
          "miles" : "37447588"
        },
        "orbiting_body" : "Earth"
      } ],
      "orbital_data" : {
        "orbit_id" : "4",
        "orbit_determination_date" : "2017-04-06 08:22:17",
        "orbit_uncertainty" : "6",
        "minimum_orbit_intersection" : ".00420001",
        "jupiter_tisserand_invariant" : "5.568",
        "epoch_osculation" : "2458000.5",
        "eccentricity" : ".1101974433321509",
        "semi_major_axis" : "1.114911952256747",
        "inclination" : "11.80752139410147",
        "ascending_node_longitude" : "45.23508359001105",
        "orbital_period" : "429.9909189969645",
        "perihelion_distance" : ".9920515055775964",
        "perihelion_argument" : "347.1008304901121",
        "aphelion_distance" : "1.237772398935898",
        "perihelion_time" : "2458117.567945302306",
        "mean_anomaly" : "261.9875573020466",
        "mean_motion" : ".8372269833971572",
        "equinox" : "J2000"
      }
    }, {
      "links" : {
        "self" : "https://api.nasa.gov/neo/rest/v1/neo/3773650?api_key=t0TVs3DtDT2H8Oy2Zy8m2eVrNsAVKAexjcZXUckd"
      },
      "neo_reference_id" : "3773650",
      "name" : "(2017 FH128)",
      "nasa_jpl_url" : "http://ssd.jpl.nasa.gov/sbdb.cgi?sstr=3773650",
      "absolute_magnitude_h" : 21.494,
      "estimated_diameter" : {
        "kilometers" : {
          "estimated_diameter_min" : 0.1335841639,
          "estimated_diameter_max" : 0.2987032712
        },
        "meters" : {
          "estimated_diameter_min" : 133.5841639131,
          "estimated_diameter_max" : 298.7032712272
        },
        "miles" : {
          "estimated_diameter_min" : 0.0830053255,
          "estimated_diameter_max" : 0.1856055503
        },
        "feet" : {
          "estimated_diameter_min" : 438.2682683328,
          "estimated_diameter_max" : 979.9976403732
        }
      },
      "is_potentially_hazardous_asteroid" : false,
      "close_approach_data" : [ {
        "close_approach_date" : "2003-09-08",
        "epoch_date_close_approach" : 1063004400000,
        "relative_velocity" : {
          "kilometers_per_second" : "18.0833704379",
          "kilometers_per_hour" : "65100.1335762805",
          "miles_per_hour" : "40450.6913324394"
        },
        "miss_distance" : {
          "astronomical" : "0.4821220117",
          "lunar" : "187.5454559326",
          "kilometers" : "72124424",
          "miles" : "44816040"
        },
        "orbiting_body" : "Earth"
      } ],
      "orbital_data" : {
        "orbit_id" : "9",
        "orbit_determination_date" : "2017-05-13 06:43:11",
        "orbit_uncertainty" : "5",
        "minimum_orbit_intersection" : ".0739088",
        "jupiter_tisserand_invariant" : "6.696",
        "epoch_osculation" : "2458000.5",
        "eccentricity" : ".3838850579102436",
        "semi_major_axis" : ".8740622180160318",
        "inclination" : "10.8683759590036",
        "ascending_node_longitude" : "100.3027572519904",
        "orbital_period" : "298.4777407624754",
        "perihelion_distance" : ".5385227928357914",
        "perihelion_argument" : "257.1689856660798",
        "aphelion_distance" : "1.209601643196272",
        "perihelion_time" : "2457968.782320913114",
        "mean_anomaly" : "38.2553300025332",
        "mean_motion" : "1.206120091502847",
        "equinox" : "J2000"
      }
    } ]
  }
}